HELIOS 2A               
1 28492U 04049A   23088.44676154  .00004531  00000+0  42578-3 0  9991
2 28492  98.2728  50.5330 0012920 221.1485 138.8752 14.94413153977660
SPIRALE A               
1 33751U 09008C   23087.98122739  .00000525  00000+0  15322-2 0  9993
2 33751   2.0859 346.5431 5475608  63.2659 341.8522  4.58967854207793
SPIRALE B               
1 33752U 09008D   23087.67245025  .00007031  00000+0  17533-2 0  9999
2 33752   2.2172 327.2735 6844998  91.8416 340.7708  2.84350665133131
SAPPHIRE                
1 39088U 13009C   23087.82156458  .00000346  00000+0  13810-3 0  9998
2 39088  98.4182 281.3232 0011952 146.5275 213.6668 14.34421358527888
